start=new Date('2022-07-26T00:00:00.000Z').valueOf();
sats=[{"OBJECT_NAME":"STARLINK-1298","ARG_OF_PERICENTER":"82.1924","TIME_SYSTEM":"UTC","TLE_LINE1":"1 45413U 20019BF  22206.78541353 -.00002877  00000-0 -17444-3 0  9996","MEAN_MOTION_DDOT":"0.0000000000000","DECAY_DATE":null,"SEMIMAJOR_AXIS":"6925.403","EPHEMERIS_TYPE":"0","FILE":"3521652","APOAPSIS":"548.014","ELEMENT_SET_NO":"999","CLASSIFICATION_TYPE":"U","MEAN_ELEMENT_THEORY":"SGP4","RA_OF_ASC_NODE":"315.3589","MEAN_MOTION_DOT":"-0.00002877","OBJECT_TYPE":"PAYLOAD","TLE_LINE2":"2 45413  53.0540 315.3589 0001077  82.1924 277.9187 15.06382136130562","MEAN_ANOMALY":"277.9187","LAUNCH_DATE":"2020-03-18","CENTER_NAME":"EARTH","SITE":"AFETR","BSTAR":"-0.00017444000000","COUNTRY_CODE":"US","PERIOD":"95.593","GP_ID":"208839571","EPOCH":"2022-07-25T18:50:59.728992","MEAN_MOTION":"15.06382136","REV_AT_EPOCH":"13056","OBJECT_ID":"2020-019BF","INCLINATION":"53.0540","PERIAPSIS":"546.522","REF_FRAME":"TEME","NORAD_CAT_ID":"45413","RCS_SIZE":"LARGE","ECCENTRICITY":"0.00010770"},{"FILE":"3521711","ELEMENT_SET_NO":"999","APOAPSIS":"548.145","CLASSIFICATION_TYPE":"U","EPHEMERIS_TYPE":"0","SEMIMAJOR_AXIS":"6925.373","DECAY_DATE":null,"MEAN_ANOMALY":"281.7892","MEAN_MOTION_DOT":"0.00000139","RA_OF_ASC_NODE":"315.7269","MEAN_ELEMENT_THEORY":"SGP4","OBJECT_TYPE":"PAYLOAD","TLE_LINE2":"2 45414  53.0567 315.7269 0001309  78.3244 281.7892 15.06392033130441","TLE_LINE1":"1 45414U 20019BG  22206.70431912  .00000139  00000-0  28197-4 0  9993","OBJECT_NAME":"STARLINK-1309","ARG_OF_PERICENTER":"78.3244","TIME_SYSTEM":"UTC","MEAN_MOTION_DDOT":"0.0000000000000","EPOCH":"2022-07-25T16:54:13.171968","OBJECT_ID":"2020-019BG","REV_AT_EPOCH":"13044","MEAN_MOTION":"15.06392033","GP_ID":"208858993","NORAD_CAT_ID":"45414","REF_FRAME":"TEME","RCS_SIZE":"LARGE","ECCENTRICITY":"0.00013090","PERIAPSIS":"546.331","INCLINATION":"53.0567","BSTAR":"0.00002819700000","SITE":"AFETR","LAUNCH_DATE":"2020-03-18","CENTER_NAME":"EARTH","PERIOD":"95.593","COUNTRY_CODE":"US"},{"INCLINATION":"53.0557","PERIAPSIS":"546.111","ECCENTRICITY":"0.00016580","RCS_SIZE":"LARGE","REF_FRAME":"TEME","NORAD_CAT_ID":"45415","GP_ID":"208828144","REV_AT_EPOCH":"13046","MEAN_MOTION":"15.06384975","OBJECT_ID":"2020-019BH","EPOCH":"2022-07-25T14:20:17.295360","COUNTRY_CODE":"US","PERIOD":"95.593","CENTER_NAME":"EARTH","LAUNCH_DATE":"2020-03-18","BSTAR":"-0.00010689000000","SITE":"AFETR","TLE_LINE2":"2 45415  53.0557 316.2145 0001658  96.0165 264.1013 15.06384975130464","OBJECT_TYPE":"PAYLOAD","RA_OF_ASC_NODE":"316.2145","MEAN_ELEMENT_THEORY":"SGP4","MEAN_MOTION_DOT":"-0.00001873","MEAN_ANOMALY":"264.1013","DECAY_DATE":null,"EPHEMERIS_TYPE":"0","SEMIMAJOR_AXIS":"6925.395","ELEMENT_SET_NO":"999","APOAPSIS":"548.408","CLASSIFICATION_TYPE":"U","FILE":"3521435","MEAN_MOTION_DDOT":"0.0000000000000","TIME_SYSTEM":"UTC","OBJECT_NAME":"STARLINK-1316","ARG_OF_PERICENTER":"96.0165","TLE_LINE1":"1 45415U 20019BH  22206.59742240 -.00001873  00000-0 -10689-3 0  9994"},{"INCLINATION":"53.0541","PERIAPSIS":"546.332","NORAD_CAT_ID":"45416","REF_FRAME":"TEME","RCS_SIZE":"LARGE","ECCENTRICITY":"0.00013870","GP_ID":"208859994","EPOCH":"2022-07-25T19:54:42.296544","OBJECT_ID":"2020-019BJ","REV_AT_EPOCH":"13048","MEAN_MOTION":"15.06374287","COUNTRY_CODE":"US","PERIOD":"95.594","LAUNCH_DATE":"2020-03-18","CENTER_NAME":"EARTH","SITE":"AFETR","BSTAR":"-0.00018092000000","MEAN_MOTION_DOT":"-0.00002973","MEAN_ELEMENT_THEORY":"SGP4","RA_OF_ASC_NODE":"315.1739","TLE_LINE2":"2 45416  53.0541 315.1739 0001387  88.3532 271.7616 15.06374287130486","OBJECT_TYPE":"PAYLOAD","MEAN_ANOMALY":"271.7616","EPHEMERIS_TYPE":"0","SEMIMAJOR_AXIS":"6925.427","DECAY_DATE":null,"FILE":"3521711","APOAPSIS":"548.253","ELEMENT_SET_NO":"999","CLASSIFICATION_TYPE":"U","MEAN_MOTION_DDOT":"0.0000000000000","OBJECT_NAME":"STARLINK-1318","ARG_OF_PERICENTER":"88.3532","TIME_SYSTEM":"UTC","TLE_LINE1":"1 45416U 20019BJ  22206.82965621 -.00002973  00000-0 -18092-3 0  9999"},{"APOAPSIS":"547.994","ELEMENT_SET_NO":"999","CLASSIFICATION_TYPE":"U","FILE":"3521711","DECAY_DATE":null,"EPHEMERIS_TYPE":"0","SEMIMAJOR_AXIS":"6925.339","MEAN_ANOMALY":"268.1702","TLE_LINE2":"2 45417  53.0538 345.4339 0001141  91.9418 268.1702 15.06403144130320","OBJECT_TYPE":"PAYLOAD","RA_OF_ASC_NODE":"345.4339","MEAN_ELEMENT_THEORY":"SGP4","MEAN_MOTION_DOT":"0.00000325","TLE_LINE1":"1 45417U 20019BK  22206.76789619  .00000325  00000-0  40700-4 0  9993","TIME_SYSTEM":"UTC","OBJECT_NAME":"STARLINK-1286","ARG_OF_PERICENTER":"91.9418","MEAN_MOTION_DDOT":"0.0000000000000","MEAN_MOTION":"15.06403144","REV_AT_EPOCH":"13032","OBJECT_ID":"2020-019BK","EPOCH":"2022-07-25T18:25:46.230816","GP_ID":"208860744","ECCENTRICITY":"0.00011410","RCS_SIZE":"LARGE","REF_FRAME":"TEME","NORAD_CAT_ID":"45417","PERIAPSIS":"546.414","INCLINATION":"53.0538","BSTAR":"0.00004070000000","SITE":"AFETR","CENTER_NAME":"EARTH","LAUNCH_DATE":"2020-03-18","PERIOD":"95.592","COUNTRY_CODE":"US"},{"MEAN_MOTION_DDOT":"0.0000000000000","OBJECT_NAME":"STARLINK-1299","ARG_OF_PERICENTER":"106.5040","TIME_SYSTEM":"UTC","TLE_LINE1":"1 45418U 20019BL  22206.84729078  .00008899  00000-0  60587-3 0  9994","RA_OF_ASC_NODE":"6.4180","MEAN_ELEMENT_THEORY":"SGP4","MEAN_MOTION_DOT":"0.00008899","TLE_LINE2":"2 45418  52.9998   6.4180 0001877 106.5040 253.6154 15.06992991129733","OBJECT_TYPE":"PAYLOAD","MEAN_ANOMALY":"253.6154","DECAY_DATE":null,"SEMIMAJOR_AXIS":"6923.532","EPHEMERIS_TYPE":"0","FILE":"3521711","APOAPSIS":"546.696","ELEMENT_SET_NO":"999","CLASSIFICATION_TYPE":"U","COUNTRY_CODE":"US","PERIOD":"95.555","LAUNCH_DATE":"2020-03-18","CENTER_NAME":"EARTH","BSTAR":"0.00060587000000","SITE":"AFETR","INCLINATION":"52.9998","PERIAPSIS":"544.097","REF_FRAME":"TEME","NORAD_CAT_ID":"45418","ECCENTRICITY":"0.00018770","RCS_SIZE":"LARGE","GP_ID":"208859492","EPOCH":"2022-07-25T20:20:05.923392","MEAN_MOTION":"15.06992991","REV_AT_EPOCH":"12973","OBJECT_ID":"2020-019BL"},{"INCLINATION":"53.0550","PERIAPSIS":"546.251","NORAD_CAT_ID":"45419","REF_FRAME":"TEME","RCS_SIZE":"LARGE","ECCENTRICITY":"0.00013870","GP_ID":"208859742","EPOCH":"2022-07-25T18:20:27.565152","OBJECT_ID":"2020-019BM","REV_AT_EPOCH":"13007","MEAN_MOTION":"15.06400680","COUNTRY_CODE":"US","PERIOD":"95.592","LAUNCH_DATE":"2020-03-18","CENTER_NAME":"EARTH","BSTAR":"0.00021351000000","SITE":"AFETR","MEAN_MOTION_DOT":"0.00002900","RA_OF_ASC_NODE":"345.4710","MEAN_ELEMENT_THEORY":"SGP4","OBJECT_TYPE":"PAYLOAD","TLE_LINE2":"2 45419  53.0550 345.4710 0001387  91.4175 268.6972 15.06400680130074","MEAN_ANOMALY":"268.6972","SEMIMAJOR_AXIS":"6925.346","EPHEMERIS_TYPE":"0","DECAY_DATE":null,"FILE":"3521711","CLASSIFICATION_TYPE":"U","APOAPSIS":"548.172","ELEMENT_SET_NO":"999","MEAN_MOTION_DDOT":"0.0000000000000","OBJECT_NAME":"STARLINK-1308","ARG_OF_PERICENTER":"91.4175","TIME_SYSTEM":"UTC","TLE_LINE1":"1 45419U 20019BM  22206.76420793  .00002900  00000-0  21351-3 0  9991"},{"MEAN_MOTION_DDOT":"0.0000000000000","TLE_LINE1":"1 45531U 20025A   22206.73288688 -.00000034  00000-0  16640-4 0  9998","TIME_SYSTEM":"UTC","OBJECT_NAME":"STARLINK-1329","ARG_OF_PERICENTER":"82.3772","MEAN_ANOMALY":"277.7383","OBJECT_TYPE":"PAYLOAD","TLE_LINE2":"2 45531  53.0548 285.6097 0001457  82.3772 277.7383 15.06388426125691","MEAN_MOTION_DOT":"-0.00000034","RA_OF_ASC_NODE":"285.6097","MEAN_ELEMENT_THEORY":"SGP4","APOAPSIS":"548.258","ELEMENT_SET_NO":"999","CLASSIFICATION_TYPE":"U","FILE":"3521711","SEMIMAJOR_AXIS":"6925.384","EPHEMERIS_TYPE":"0","DECAY_DATE":null,"PERIOD":"95.593","COUNTRY_CODE":"US","SITE":"AFETR","BSTAR":"0.00001664000000","CENTER_NAME":"EARTH","LAUNCH_DATE":"2020-04-22","RCS_SIZE":"LARGE","ECCENTRICITY":"0.00014570","NORAD_CAT_ID":"45531","REF_FRAME":"TEME","INCLINATION":"53.0548","PERIAPSIS":"546.240","OBJECT_ID":"2020-025A","REV_AT_EPOCH":"12569","MEAN_MOTION":"15.06388426","EPOCH":"2022-07-25T17:35:21.426432","GP_ID":"208859005"},{"BSTAR":"0.00006445800000","SITE":"AFETR","CENTER_NAME":"EARTH","LAUNCH_DATE":"2020-04-22","PERIOD":"95.591","COUNTRY_CODE":"US","OBJECT_ID":"2020-025B","REV_AT_EPOCH":"12567","MEAN_MOTION":"15.06411430","EPOCH":"2022-07-25T14:40:10.310880","GP_ID":"208859254","ECCENTRICITY":"0.00012980","RCS_SIZE":"LARGE","NORAD_CAT_ID":"45532","REF_FRAME":"TEME","INCLINATION":"53.0548","PERIAPSIS":"546.280","TLE_LINE1":"1 45532U 20025B   22206.61123045  .00000679  00000-0  64458-4 0  9995","TIME_SYSTEM":"UTC","ARG_OF_PERICENTER":"82.6536","OBJECT_NAME":"STARLINK-1338","MEAN_MOTION_DDOT":"0.0000000000000","CLASSIFICATION_TYPE":"U","APOAPSIS":"548.077","ELEMENT_SET_NO":"999","FILE":"3521711","EPHEMERIS_TYPE":"0","SEMIMAJOR_AXIS":"6925.314","DECAY_DATE":null,"MEAN_ANOMALY":"277.4600","TLE_LINE2":"2 45532  53.0548 286.1556 0001298  82.6536 277.4600 15.06411430125671","OBJECT_TYPE":"PAYLOAD","MEAN_MOTION_DOT":"0.00000679","RA_OF_ASC_NODE":"286.1556","MEAN_ELEMENT_THEORY":"SGP4"},{"MEAN_ANOMALY":"95.8946","TLE_LINE2":"2 45533  53.0377 224.6702 0001486 264.1898  95.8946 15.62456019126534","OBJECT_TYPE":"PAYLOAD","MEAN_MOTION_DOT":"0.00138638","MEAN_ELEMENT_THEORY":"SGP4","RA_OF_ASC_NODE":"224.6702","ELEMENT_SET_NO":"999","APOAPSIS":"381.571","CLASSIFICATION_TYPE":"U","FILE":"3521711","SEMIMAJOR_AXIS":"6758.702","EPHEMERIS_TYPE":"0","DECAY_DATE":null,"MEAN_MOTION_DDOT":"0.0000000000000","TLE_LINE1":"1 45533U 20025C   22206.54698795  .00138638  00000-0  15116-2 0  9999","TIME_SYSTEM":"UTC","ARG_OF_PERICENTER":"264.1898","OBJECT_NAME":"STARLINK-1339","ECCENTRICITY":"0.00014860","RCS_SIZE":"LARGE","NORAD_CAT_ID":"45533","REF_FRAME":"TEME","PERIAPSIS":"379.563","INCLINATION":"53.0377","OBJECT_ID":"2020-025C","REV_AT_EPOCH":"12653","MEAN_MOTION":"15.62456019","EPOCH":"2022-07-25T13:07:39.758880","GP_ID":"208860006","PERIOD":"92.163","COUNTRY_CODE":"US","SITE":"AFETR","BSTAR":"0.00151160000000","CENTER_NAME":"EARTH","LAUNCH_DATE":"2020-04-22"}];
